RADCAL                  
1 22698U 93041A   09131.91316072  .00000059  00000-0  19353-4 0  3327
2 22698  89.5351  29.1247 0092027  76.0416 285.0998 14.22814071824116
STRV 1A                 
1 23125U 94034B   09132.61061577  .00000966  00000-0  24077-3 0  4282
2 23125   7.2602 104.9916 6842377 255.0884  25.3220  2.85014668138434
STRV 1B                 
1 23126U 94034C   09131.34753975  .00010335  00000-0  90690-3 0  4300
2 23126   7.3451  53.4763 6815719 357.3870   0.3641  2.91372055140579
HELIOS 1A               
1 23605U 95033A   09133.04681143 -.00000090  00000-0 -82976-5 0  1168
2 23605  98.0828  70.4082 0002479 112.5001 247.6458 14.63863031740031
REX 2                   
1 23814U 96014A   09132.11000988  .00000020  00000-0  37353-5 0  6760
2 23814  90.1567 271.6135 0024852  71.4001 288.9877 14.23864349684413
COSMOS 2346             
1 24953U 97052A   09132.12888375  .00000019  00000-0  40584-5 0  4736
2 24953  82.9217 342.7103 0038180 232.2174 127.5524 13.79434003585654
ARGOS                   
1 25634U 99008A   09133.06220862  .00000180  00000-0  10864-3 0  7166
2 25634  99.0131 169.5371 0010882  49.8459 310.3667 14.18908693529062
HELIOS 1B               
1 25977U 99064A   09133.08598316 -.00000071  00000-0 -21372-5 0  2560
2 25977  98.3406 132.6093 0002425  79.3239 280.8235 14.77686544506744
MTI                     
1 26102U 00014A   09133.13011745  .00000688  00000-0  43754-4 0  6080
2 26102  97.2162 299.2508 0018644 230.7932 188.9624 15.11733566504100
STRV 1C                 
1 26610U 00072C   09131.13152649 -.00000059  00000-0  00000-0 0  9253
2 26610   6.7396 296.7218 7325950  42.7347 355.2371  2.03457342 63062
OFEQ 5                  
1 27434U 02025A   09133.11346094  .00001253  00000-0  53164-4 0  1922
2 27434 143.4649  76.4586 0024873  93.2891 267.0700 15.05589042388005
HELIOS-2A               
1 28492U 04049A   09133.08026901  .00000068  00000-0  21880-4 0  9328
2 28492  98.0858  70.5637 0001829 103.5340 256.6068 14.63858793235006
ESSAIM-1                
1 28494U 04049C   09132.99329607  .00000041  00000-0  15344-4 0  9956
2 28494  98.2521  91.5678 0003016  11.9986 348.1292 14.70163397235916
ESSAIM-2                
1 28495U 04049D   09132.99284178  .00000007  00000-0  96256-5 0   269
2 28495  98.2529  91.6713 0003707   1.1926 358.9291 14.70164015235914
ESSAIM-3                
1 28496U 04049E   09133.06151139 -.00000007  00000-0  74438-5 0  9537
2 28496  98.2657  95.9730 0009044   5.7273 354.4034 14.70162704236109
ESSAIM-4                
1 28497U 04049F   09132.99297681 -.00000026  00000-0  43041-5 0    79
2 28497  98.2660  95.9442 0012100   0.3136 359.8077 14.70162067236096
SAR-LUPE 1              
1 29658U 06060A   09133.16390014  .00000990  00000-0  41082-4 0  6840
2 29658  98.1298 229.6959 0021274  25.8442  63.8829 15.26456109133587
MIDSTAR-1               
1 30773U 07006B   09133.15879868 -.00000305  00000-0  00000+0 0  6211
2 30773  46.0341 184.3344 0010892 356.1043   3.9765 15.23754977121395
CFESAT                  
1 30777U 07006F   09131.89720109  .00000329  00000-0  27191-4 0  5744
2 30777  35.4341 323.2502 0004407 295.7647  64.2614 15.02735824119593
NFIRE                   
1 31140U 07014A   09133.13167147  .00004574  00000-0  61821-4 0  8033
2 31140  48.2333  36.0440 0052288 211.1297 148.6546 15.58311813116760
OFEQ 7                  
1 31601U 07025A   09133.19399530  .00002222  00000-0  75806-4 0  1833
2 31601 141.7482 251.7836 0072306 253.4480 169.1444 15.19552580107105
SAR-LUPE 2              
1 31797U 07030A   09133.16364882  .00000631  00000-0  27573-4 0   866
2 31797  98.1922 299.0912 0013558 337.6374 145.5723 15.26407642103803
SAR-LUPE 3              
1 32283U 07053A   09133.17542219  .00000766  00000-0  32606-4 0  7156
2 32283  98.1288   1.1415 0012250  82.8152  70.3041 15.26473156 85316
SAR-LUPE 4              
1 32750U 08014A   09133.15215390  .00001000  00000-0  41500-4 0  2574
2 32750  98.1259 230.7774 0021755 188.7149 265.6109 15.26427306 62767
SAR-LUPE 5              
1 33244U 08036A   09133.16111074  .00000737  00000-0  31463-4 0  9022
2 33244  98.1233 359.5949 0020295 235.5858 270.7878 15.26463786 45008
SPIRALE A               
1 33751U 09008C   09132.40744441 -.00000091  00000-0  10000-3 0   681
2 33751   1.7916 265.6840 7139938 245.8056  28.3589  2.25833919  2005
SPIRALE B               
1 33752U 09008D   09132.42850545 -.00000006  00000-0  17223-2 0   552
2 33752   1.8011 265.5479 7136549 245.7937  28.5655  2.25845846  2000
